STARLINK-36551          
1 67493U 26012A   26046.58335648 -.01701185  00000+0 -59221-1 0  9994
2 67493  42.9997  79.6510 0001563 286.9832 173.1539 15.32199503  5521
STARLINK-36396          
1 67494U 26012B   26046.46977864  .00098925  00000+0  16692-2 0  9998
2 67494  43.0007  80.7731 0000698 245.2475 114.8313 15.50607452  4352
STARLINK-36550          
1 67495U 26012C   26046.58335648 -.01837307  00000+0 -49949-1 0  9998
2 67495  42.9998  79.7230 0001399 288.2697 143.9063 15.40067402  5523
STARLINK-36534          
1 67496U 26012D   26046.58335648 -.01812701  00000+0 -55164-1 0  9996
2 67496  42.9997  79.5238 0001384 298.3283 213.8188 15.36599887  5466
STARLINK-36555          
1 67497U 26012E   26046.58335648 -.01810985  00000+0 -55763-1 0  9994
2 67497  43.0001  79.5516 0001380 295.5301 205.2461 15.36235395  5527
STARLINK-36081          
1 67498U 26012F   26046.58335648 -.01833063  00000+0 -44891-1 0  9997
2 67498  43.0004  79.6604 0001602 289.2797 168.2740 15.43158782  5469
STARLINK-36558          
1 67499U 26012G   26046.58335648 -.01823276  00000+0 -43341-1 0  9992
2 67499  43.0002  79.6412 0001576 289.8397 175.3517 15.44013923  5523
STARLINK-36557          
1 67500U 26012H   26046.58335648 -.01656992  00000+0 -53428-1 0  9991
2 67500  43.0002  79.3315 0001147 272.5722 316.9241 15.34522451  5527
STARLINK-36433          
1 67501U 26012J   26046.58335648 -.01795587  00000+0 -57489-1 0  9997
2 67501  43.0000  79.2838 0001037 279.4383 328.9177 15.35003813  5520
STARLINK-36554          
1 67502U 26012K   26046.58335648 -.01882780  00000+0 -46333-1 0  9996
2 67502  42.9994  79.3961 0000914 300.7486 263.0262 15.43108867  5465
STARLINK-36552          
1 67503U 26012L   26046.58335648 -.01810853  00000+0 -56135-1 0  9990
2 67503  42.9998  79.1613 0001088 272.4336  25.5171 15.36030778  5528
STARLINK-36512          
1 67504U 26012M   26046.58335648 -.01817030  00000+0 -48751-1 0  9990
2 67504  42.9999  79.1686 0001024 276.4496  19.2015 15.40428868  5524
