CCSDS_OMM_VERS = 2.0
CREATION_DATE  = 
ORIGINATOR     = 

OBJECT_NAME    = STARLINK-36551
OBJECT_ID      = 2026-012A
CENTER_NAME    = EARTH
REF_FRAME      = TEME
TIME_SYSTEM    = UTC
MEAN_ELEMENT_THEORY = SGP/SGP4

EPOCH          = 2026-02-15T14:00:01.999872
MEAN_MOTION    = 15.32199503
ECCENTRICITY   = .00015635
INCLINATION    = 42.9997
RA_OF_ASC_NODE = 79.6510
ARG_OF_PERICENTER = 286.9832
MEAN_ANOMALY   = 173.1539

EPHEMERIS_TYPE = 0
CLASSIFICATION_TYPE = U
NORAD_CAT_ID   = 67493
ELEMENT_SET_NO = 999
REV_AT_EPOCH   = 552
BSTAR          = -.59220794E-1
MEAN_MOTION_DOT = -.1701185E-1
MEAN_MOTION_DDOT = 0

CCSDS_OMM_VERS = 2.0
CREATION_DATE  = 
ORIGINATOR     = 

OBJECT_NAME    = STARLINK-36396
OBJECT_ID      = 2026-012B
CENTER_NAME    = EARTH
REF_FRAME      = TEME
TIME_SYSTEM    = UTC
MEAN_ELEMENT_THEORY = SGP/SGP4

EPOCH          = 2026-02-15T11:16:28.874496
MEAN_MOTION    = 15.50607452
ECCENTRICITY   = .00006982
INCLINATION    = 43.0007
RA_OF_ASC_NODE = 80.7731
ARG_OF_PERICENTER = 245.2475
MEAN_ANOMALY   = 114.8313

EPHEMERIS_TYPE = 0
CLASSIFICATION_TYPE = U
NORAD_CAT_ID   = 67494
ELEMENT_SET_NO = 999
REV_AT_EPOCH   = 435
BSTAR          = .16691545E-2
MEAN_MOTION_DOT = .98925E-3
MEAN_MOTION_DDOT = 0

CCSDS_OMM_VERS = 2.0
CREATION_DATE  = 
ORIGINATOR     = 

OBJECT_NAME    = STARLINK-36550
OBJECT_ID      = 2026-012C
CENTER_NAME    = EARTH
REF_FRAME      = TEME
TIME_SYSTEM    = UTC
MEAN_ELEMENT_THEORY = SGP/SGP4

EPOCH          = 2026-02-15T14:00:01.999872
MEAN_MOTION    = 15.40067402
ECCENTRICITY   = .00013994
INCLINATION    = 42.9998
RA_OF_ASC_NODE = 79.7230
ARG_OF_PERICENTER = 288.2697
MEAN_ANOMALY   = 143.9063

EPHEMERIS_TYPE = 0
CLASSIFICATION_TYPE = U
NORAD_CAT_ID   = 67495
ELEMENT_SET_NO = 999
REV_AT_EPOCH   = 552
BSTAR          = -.4994949E-1
MEAN_MOTION_DOT = -.1837307E-1
MEAN_MOTION_DDOT = 0

CCSDS_OMM_VERS = 2.0
CREATION_DATE  = 
ORIGINATOR     = 

OBJECT_NAME    = STARLINK-36534
OBJECT_ID      = 2026-012D
CENTER_NAME    = EARTH
REF_FRAME      = TEME
TIME_SYSTEM    = UTC
MEAN_ELEMENT_THEORY = SGP/SGP4

EPOCH          = 2026-02-15T14:00:01.999872
MEAN_MOTION    = 15.36599887
ECCENTRICITY   = .00013844
INCLINATION    = 42.9997
RA_OF_ASC_NODE = 79.5238
ARG_OF_PERICENTER = 298.3283
MEAN_ANOMALY   = 213.8188

EPHEMERIS_TYPE = 0
CLASSIFICATION_TYPE = U
NORAD_CAT_ID   = 67496
ELEMENT_SET_NO = 999
REV_AT_EPOCH   = 546
BSTAR          = -.55163918E-1
MEAN_MOTION_DOT = -.1812701E-1
MEAN_MOTION_DDOT = 0

CCSDS_OMM_VERS = 2.0
CREATION_DATE  = 
ORIGINATOR     = 

OBJECT_NAME    = STARLINK-36555
OBJECT_ID      = 2026-012E
CENTER_NAME    = EARTH
REF_FRAME      = TEME
TIME_SYSTEM    = UTC
MEAN_ELEMENT_THEORY = SGP/SGP4

EPOCH          = 2026-02-15T14:00:01.999872
MEAN_MOTION    = 15.36235395
ECCENTRICITY   = .00013805
INCLINATION    = 43.0001
RA_OF_ASC_NODE = 79.5516
ARG_OF_PERICENTER = 295.5301
MEAN_ANOMALY   = 205.2461

EPHEMERIS_TYPE = 0
CLASSIFICATION_TYPE = U
NORAD_CAT_ID   = 67497
ELEMENT_SET_NO = 999
REV_AT_EPOCH   = 552
BSTAR          = -.55763407E-1
MEAN_MOTION_DOT = -.1810985E-1
MEAN_MOTION_DDOT = 0

CCSDS_OMM_VERS = 2.0
CREATION_DATE  = 
ORIGINATOR     = 

OBJECT_NAME    = STARLINK-36081
OBJECT_ID      = 2026-012F
CENTER_NAME    = EARTH
REF_FRAME      = TEME
TIME_SYSTEM    = UTC
MEAN_ELEMENT_THEORY = SGP/SGP4

EPOCH          = 2026-02-15T14:00:01.999872
MEAN_MOTION    = 15.43158782
ECCENTRICITY   = .00016029
INCLINATION    = 43.0004
RA_OF_ASC_NODE = 79.6604
ARG_OF_PERICENTER = 289.2797
MEAN_ANOMALY   = 168.2740

EPHEMERIS_TYPE = 0
CLASSIFICATION_TYPE = U
NORAD_CAT_ID   = 67498
ELEMENT_SET_NO = 999
REV_AT_EPOCH   = 546
BSTAR          = -.44890988E-1
MEAN_MOTION_DOT = -.1833063E-1
MEAN_MOTION_DDOT = 0

CCSDS_OMM_VERS = 2.0
CREATION_DATE  = 
ORIGINATOR     = 

OBJECT_NAME    = STARLINK-36558
OBJECT_ID      = 2026-012G
CENTER_NAME    = EARTH
REF_FRAME      = TEME
TIME_SYSTEM    = UTC
MEAN_ELEMENT_THEORY = SGP/SGP4

EPOCH          = 2026-02-15T14:00:01.999872
MEAN_MOTION    = 15.44013923
ECCENTRICITY   = .00015768
INCLINATION    = 43.0002
RA_OF_ASC_NODE = 79.6412
ARG_OF_PERICENTER = 289.8397
MEAN_ANOMALY   = 175.3517

EPHEMERIS_TYPE = 0
CLASSIFICATION_TYPE = U
NORAD_CAT_ID   = 67499
ELEMENT_SET_NO = 999
REV_AT_EPOCH   = 552
BSTAR          = -.43341284E-1
MEAN_MOTION_DOT = -.1823276E-1
MEAN_MOTION_DDOT = 0

CCSDS_OMM_VERS = 2.0
CREATION_DATE  = 
ORIGINATOR     = 

OBJECT_NAME    = STARLINK-36557
OBJECT_ID      = 2026-012H
CENTER_NAME    = EARTH
REF_FRAME      = TEME
TIME_SYSTEM    = UTC
MEAN_ELEMENT_THEORY = SGP/SGP4

EPOCH          = 2026-02-15T14:00:01.999872
MEAN_MOTION    = 15.34522451
ECCENTRICITY   = .00011478
INCLINATION    = 43.0002
RA_OF_ASC_NODE = 79.3315
ARG_OF_PERICENTER = 272.5722
MEAN_ANOMALY   = 316.9241

EPHEMERIS_TYPE = 0
CLASSIFICATION_TYPE = U
NORAD_CAT_ID   = 67500
ELEMENT_SET_NO = 999
REV_AT_EPOCH   = 552
BSTAR          = -.53427738E-1
MEAN_MOTION_DOT = -.1656992E-1
MEAN_MOTION_DDOT = 0

CCSDS_OMM_VERS = 2.0
CREATION_DATE  = 
ORIGINATOR     = 

OBJECT_NAME    = STARLINK-36433
OBJECT_ID      = 2026-012J
CENTER_NAME    = EARTH
REF_FRAME      = TEME
TIME_SYSTEM    = UTC
MEAN_ELEMENT_THEORY = SGP/SGP4

EPOCH          = 2026-02-15T14:00:01.999872
MEAN_MOTION    = 15.35003813
ECCENTRICITY   = .00010376
INCLINATION    = 43.0000
RA_OF_ASC_NODE = 79.2838
ARG_OF_PERICENTER = 279.4383
MEAN_ANOMALY   = 328.9177

EPHEMERIS_TYPE = 0
CLASSIFICATION_TYPE = U
NORAD_CAT_ID   = 67501
ELEMENT_SET_NO = 999
REV_AT_EPOCH   = 552
BSTAR          = -.57488691E-1
MEAN_MOTION_DOT = -.1795587E-1
MEAN_MOTION_DDOT = 0

CCSDS_OMM_VERS = 2.0
CREATION_DATE  = 
ORIGINATOR     = 

OBJECT_NAME    = STARLINK-36554
OBJECT_ID      = 2026-012K
CENTER_NAME    = EARTH
REF_FRAME      = TEME
TIME_SYSTEM    = UTC
MEAN_ELEMENT_THEORY = SGP/SGP4

EPOCH          = 2026-02-15T14:00:01.999872
MEAN_MOTION    = 15.43108867
ECCENTRICITY   = .00009142
INCLINATION    = 42.9994
RA_OF_ASC_NODE = 79.3961
ARG_OF_PERICENTER = 300.7486
MEAN_ANOMALY   = 263.0262

EPHEMERIS_TYPE = 0
CLASSIFICATION_TYPE = U
NORAD_CAT_ID   = 67502
ELEMENT_SET_NO = 999
REV_AT_EPOCH   = 546
BSTAR          = -.463334E-1
MEAN_MOTION_DOT = -.188278E-1
MEAN_MOTION_DDOT = 0

CCSDS_OMM_VERS = 2.0
CREATION_DATE  = 
ORIGINATOR     = 

OBJECT_NAME    = STARLINK-36552
OBJECT_ID      = 2026-012L
CENTER_NAME    = EARTH
REF_FRAME      = TEME
TIME_SYSTEM    = UTC
MEAN_ELEMENT_THEORY = SGP/SGP4

EPOCH          = 2026-02-15T14:00:01.999872
MEAN_MOTION    = 15.36030778
ECCENTRICITY   = .00010885
INCLINATION    = 42.9998
RA_OF_ASC_NODE = 79.1613
ARG_OF_PERICENTER = 272.4336
MEAN_ANOMALY   = 25.5171

EPHEMERIS_TYPE = 0
CLASSIFICATION_TYPE = U
NORAD_CAT_ID   = 67503
ELEMENT_SET_NO = 999
REV_AT_EPOCH   = 552
BSTAR          = -.56134793E-1
MEAN_MOTION_DOT = -.1810853E-1
MEAN_MOTION_DDOT = 0

CCSDS_OMM_VERS = 2.0
CREATION_DATE  = 
ORIGINATOR     = 

OBJECT_NAME    = STARLINK-36512
OBJECT_ID      = 2026-012M
CENTER_NAME    = EARTH
REF_FRAME      = TEME
TIME_SYSTEM    = UTC
MEAN_ELEMENT_THEORY = SGP/SGP4

EPOCH          = 2026-02-15T14:00:01.999872
MEAN_MOTION    = 15.40428868
ECCENTRICITY   = .0001024
INCLINATION    = 42.9999
RA_OF_ASC_NODE = 79.1686
ARG_OF_PERICENTER = 276.4496
MEAN_ANOMALY   = 19.2015

EPHEMERIS_TYPE = 0
CLASSIFICATION_TYPE = U
NORAD_CAT_ID   = 67504
ELEMENT_SET_NO = 999
REV_AT_EPOCH   = 552
BSTAR          = -.48751221E-1
MEAN_MOTION_DOT = -.181703E-1
MEAN_MOTION_DDOT = 0

